[{"OBJECT_NAME":"OBJECT F","OBJECT_ID":"2024-092F","EPOCH":"2026-03-09T21:54:46.147104","MEAN_MOTION":15.3361444,"ECCENTRICITY":0.00086458,"INCLINATION":97.6418,"RA_OF_ASC_NODE":198.4543,"ARG_OF_PERICENTER":142.6506,"MEAN_ANOMALY":217.5339,"EPHEMERIS_TYPE":0,"CLASSIFICATION_TYPE":"U","NORAD_CAT_ID":59778,"ELEMENT_SET_NO":999,"REV_AT_EPOCH":10053,"BSTAR":0.0007914277,"MEAN_MOTION_DOT":0.00025723,"MEAN_MOTION_DDOT":0},{"OBJECT_NAME":"STARLINK-31813","OBJECT_ID":"2024-118R","EPOCH":"2026-03-09T06:43:38.809056","MEAN_MOTION":15.3018502,"ECCENTRICITY":0.00011897,"INCLINATION":53.1618,"RA_OF_ASC_NODE":28.6209,"ARG_OF_PERICENTER":95.7666,"MEAN_ANOMALY":264.347,"EPHEMERIS_TYPE":0,"CLASSIFICATION_TYPE":"U","NORAD_CAT_ID":60128,"ELEMENT_SET_NO":999,"REV_AT_EPOCH":9563,"BSTAR":-4.0185054e-5,"MEAN_MOTION_DOT":-1.548e-5,"MEAN_MOTION_DDOT":0}]
